{
  "norad_id": "66666",
  "name": "FORMOSAT-8A",
  "line1": "1 66666U 25276A   26171.20630524  .00001172  00000+0  96828-4 0  9998",
  "line2": "2 66666  97.6546 245.4062 0002663 247.3893 112.7050 15.00860579 30511",
  "fetched_at": "2026-06-22T01:52:53.868911+00:00"
}